*******************************************************************************
JPL/HORIZONS               305 Gordonia (A891 DA)          2023-Sep-04 11:05:34
Rec #:     305 (+COV) Soln.date: 2023-Aug-23_05:36:45   # obs: 8183 (1892-2023)
 
IAU76/J2000 helio. ecliptic osc. elements (au, days, deg., period=Julian yrs):
 
  EPOCH=  2457455.5 ! 2016-Mar-08.00 (TDB)         Residual RMS= .29529
   EC= .1927785683540588   QR= 2.4963356271818     TP= 2457362.5356980381
   OM= 207.5130052766634   W=  261.2928019473268   IN= 4.442872099677841
   A= 3.092504149811434    MA= 16.84825201160451   ADIST= 3.688672672441069
   PER= 5.43843            N= .181233567           ANGMOM= .029683345
   DAN= 3.06708            DDN= 2.89314            L= 108.7799678
   B= -4.3915663           MOID= 1.51733994        TP= 2015-Dec-06.0356980381
 
Asteroid physical parameters (km, seconds, rotational period in hours):
   GM= n.a.                RAD= 23.8695            ROTPER= 12.893
   H= 8.92                 G= .150                 B-V= .919
                           ALBEDO= .238            STYP= S

ASTEROID comments: 
1: soln ref.= JPL#77, OCC=0
2: source=ORB
*******************************************************************************


*******************************************************************************
Ephemeris / API_USER Mon Sep  4 11:05:34 2023 Pasadena, USA      / Horizons
*******************************************************************************
Target body name: 305 Gordonia (A891 DA)          {source: JPL#77}
Center body name: Solar System Barycenter (0)     {source: DE441}
Center-site name: BODY CENTER
*******************************************************************************
Start time      : A.D. 2023-Aug-12 00:00:00.0000 TDB
Stop  time      : A.D. 2023-Aug-13 00:00:00.0000 TDB
Step-size       : 2880 minutes
*******************************************************************************
Center geodetic : 0.0, 0.0, 0.0                   {E-lon(deg),Lat(deg),Alt(km)}
Center cylindric: 0.0, 0.0, 0.0                   {E-lon(deg),Dxy(km),Dz(km)}
Center radii    : (undefined)
Small perturbers: Yes                             {source: SB441-N16}
Output units    : KM-S
Calendar mode   : Mixed Julian/Gregorian
Output type     : GEOMETRIC cartesian states
Output format   : 2 (position and velocity)
Reference frame : Ecliptic of J2000.0
*******************************************************************************
Initial IAU76/J2000 heliocentric ecliptic osculating elements (au, days, deg.):
  EPOCH=  2457455.5 ! 2016-Mar-08.00 (TDB)         Residual RMS= .29529        
   EC= .1927785683540588   QR= 2.4963356271818     TP= 2457362.5356980381      
   OM= 207.5130052766634   W=  261.2928019473268   IN= 4.442872099677841       
  Equivalent ICRF heliocentric cartesian coordinates (au, au/d):
   X=-1.754958589269190E+00  Y= 1.744437574390344E+00  Z= 5.509776177772373E-01
  VX=-9.003892039935506E-03 VY=-6.983975806634916E-03 VZ=-2.814793913903574E-03
Asteroid physical parameters (km, seconds, rotational period in hours):        
   GM= n.a.                RAD= 23.8695            ROTPER= 12.893              
   H= 8.92                 G= .150                 B-V= .919                   
                           ALBEDO= .238            STYP= S                     
*******************************************************************************
JDTDB
   X     Y     Z
   VX    VY    VZ
*******************************************************************************
$$SOE
2460168.500000000 = A.D. 2023-Aug-12 00:00:00.0000 TDB 
 X =-2.968940391455941E+07 Y =-5.424216970263271E+08 Z = 3.645822602498510E+07
 VX= 1.402606833038995E+01 VY=-1.925647600298369E+00 VZ= 6.352972844688756E-01
$$EOE
*******************************************************************************
 
TIME

  Barycentric Dynamical Time ("TDB" or T_eph) output was requested. This
continuous coordinate time is equivalent to the relativistic proper time
of a clock at rest in a reference frame co-moving with the solar system
barycenter but outside the system's gravity well. It is the independent
variable in the solar system relativistic equations of motion.

  TDB runs at a uniform rate of one SI second per second and is independent
of irregularities in Earth's rotation.
 
CALENDAR SYSTEM

  Mixed calendar mode was active such that calendar dates after AD 1582-Oct-15
(if any) are in the modern Gregorian system. Dates prior to 1582-Oct-5 (if any)
are in the Julian calendar system, which is automatically extended for dates
prior to its adoption on 45-Jan-1 BC.  The Julian calendar is useful for
matching historical dates. The Gregorian calendar more accurately corresponds
to the Earth's orbital motion and seasons. A "Gregorian-only" calendar mode is
available if such physical events are the primary interest.

REFERENCE FRAME AND COORDINATES

  Ecliptic at the standard reference epoch

    Reference epoch: J2000.0
    X-Y plane: adopted Earth orbital plane at the reference epoch
               Note: IAU76 obliquity of 84381.448 arcseconds wrt ICRF X-Y plane
    X-axis   : ICRF
    Z-axis   : perpendicular to the X-Y plane in the directional (+ or -) sense
               of Earth's north pole at the reference epoch.

  Symbol meaning:

    JDTDB    Julian Day Number, Barycentric Dynamical Time
      X      X-component of position vector (km)
      Y      Y-component of position vector (km)
      Z      Z-component of position vector (km)
      VX     X-component of velocity vector (km/sec)                           
      VY     Y-component of velocity vector (km/sec)                           
      VZ     Z-component of velocity vector (km/sec)                           

ABERRATIONS AND CORRECTIONS

 Geometric state vectors have NO corrections or aberrations applied.

Computations by ...

    Solar System Dynamics Group, Horizons On-Line Ephemeris System
    4800 Oak Grove Drive, Jet Propulsion Laboratory
    Pasadena, CA  91109   USA

    General site: https://ssd.jpl.nasa.gov/
    Mailing list: https://ssd.jpl.nasa.gov/email_list.html
    System news : https://ssd.jpl.nasa.gov/horizons/news.html
    User Guide  : https://ssd.jpl.nasa.gov/horizons/manual.html
    Connect     : browser        https://ssd.jpl.nasa.gov/horizons/app.html#/x
                  API            https://ssd-api.jpl.nasa.gov/doc/horizons.html
                  command-line   telnet ssd.jpl.nasa.gov 6775
                  e-mail/batch   https://ssd.jpl.nasa.gov/ftp/ssd/hrzn_batch.txt
                  scripts        https://ssd.jpl.nasa.gov/ftp/ssd/SCRIPTS
    Author      : Jon.D.Giorgini@jpl.nasa.gov
*******************************************************************************
